
# Worst residual: 1.53 km
# MJD 59972.000000 (2023 Jan 28  0:00)
2015-019C = NORAD 41929 = S509356 = WJ2AD07
1 41929U 15019C   23028.49919926  .00000000  00000-0  00000-0 0 19907
2 41929 019.9296 213.4731 4819761 173.7507 152.8286 00.27921053    01

# Worst residual: 1.44 km
# MJD 59973.000000 (2023 Jan 29  0:00)
2015-019C = NORAD 41929 = S509356 = WJ2AD07
1 41929U 15019C   23029.49919926  .00000000  00000-0  00000-0 0 19908
2 41929 019.9343 213.4464 4820103 173.8098 253.2774 00.27919978    06

# Worst residual: 13.74 km
# MJD 59974.000000 (2023 Jan 30  0:00)
2015-019C = NORAD 41929 = S509356 = WJ2AD07
1 41929U 15019C   23030.49919926  .00000000  00000-0  00000-0 0 19900
2 41929 019.9318 213.3948 4822917 173.8799 353.7566 00.27907719    02

# Worst residual: 6.31 km
# MJD 59975.000000 (2023 Jan 31  0:00)
2015-019C = NORAD 41929 = S509356 = WJ2AD07
1 41929U 15019C   23031.49919926  .00000000  00000-0  00000-0 0 19901
2 41929 019.9365 213.4092 4820872 173.9113 094.2196 00.27914780    06

# Worst residual: 0.75 km
# MJD 59976.000000 (2023 Feb  1  0:00)
2015-019C = NORAD 41929 = S509356 = WJ2AD07
1 41929U 15019C   23032.49919926  .00000000  00000-0  00000-0 0 19902
2 41929 019.9334 213.3801 4821335 173.9388 194.7488 00.27921029    02

# Worst residual: 9.66 km
# MJD 59977.000000 (2023 Feb  2  0:00)
2015-019C = NORAD 41929 = S509356 = WJ2AD07
1 41929U 15019C   23033.49919926  .00000000  00000-0  00000-0 0 19903
2 41929 019.9285 213.3527 4820333 174.0196 295.1561 00.27929499    05

# Worst residual: 12.62 km
# MJD 59978.000000 (2023 Feb  3  0:00)
2015-019C = NORAD 41929 = S509356 = WJ2AD07
1 41929U 15019C   23034.49919926  .00000000  00000-0  00000-0 0 19904
2 41929 019.9243 213.3283 4817292 174.0318 035.6705 00.27946538    04

# Worst residual: 2.07 km
# MJD 59979.000000 (2023 Feb  4  0:00)
2015-019C = NORAD 41929 = S509356 = WJ2AD07
1 41929U 15019C   23035.49919926  .00000000  00000-0  00000-0 0 19905
2 41929 019.9226 213.2900 4822732 174.1119 136.1053 00.27929446    07

# Worst residual: 7.56 km
# MJD 59980.000000 (2023 Feb  5  0:00)
2015-019C = NORAD 41929 = S509356 = WJ2AD07
1 41929U 15019C   23036.49919926  .00000000  00000-0  00000-0 0 19906
2 41929 019.9087 213.2621 4821240 174.1104 236.7269 00.27920159    07

# Worst residual: 15.95 km
# MJD 59981.000000 (2023 Feb  6  0:00)
2015-019C = NORAD 41929 = S509356 = WJ2AD07
1 41929U 15019C   23037.49919926  .00000000  00000-0  00000-0 0 19907
2 41929 019.9027 213.2611 4821894 174.0952 337.2333 00.27904870    06

# Worst residual: 12.54 km
# MJD 59982.000000 (2023 Feb  7  0:00)
2015-019C = NORAD 41929 = S509356 = WJ2AD07
1 41929U 15019C   23038.49919926  .00000000  00000-0  00000-0 0 19908
2 41929 019.8803 213.2065 4820522 174.1792 077.6957 00.27927818    04

# Worst residual: 5.26 km
# MJD 59983.000000 (2023 Feb  8  0:00)
2015-019C = NORAD 41929 = S509356 = WJ2AD07
1 41929U 15019C   23039.49919926  .00000000  00000-0  00000-0 0 19909
2 41929 019.9127 213.1136 4827970 174.3554 177.9780 00.27919538    02

# Worst residual: 19.99 km
# MJD 59984.000000 (2023 Feb  9  0:00)
2015-019C = NORAD 41929 = S509356 = WJ2AD07
1 41929U 15019C   23040.49919926  .00000000  00000-0  00000-0 0 19901
2 41929 019.9260 213.0935 4834710 174.3105 278.6735 00.27906466    03

# Worst residual: 20.77 km
# MJD 59985.000000 (2023 Feb 10  0:00)
2015-019C = NORAD 41929 = S509356 = WJ2AD07
1 41929U 15019C   23041.49919926  .00000000  00000-0  00000-0 0 19902
2 41929 019.9151 213.1076 4841961 174.3692 019.1228 00.27892304    06

# Worst residual: 7.72 km
# MJD 59986.000000 (2023 Feb 11  0:00)
2015-019C = NORAD 41929 = S509356 = WJ2AD07
1 41929U 15019C   23042.49919926  .00000000  00000-0  00000-0 0 19903
2 41929 019.9061 213.0786 4833328 174.4630 119.6075 00.27909677    02

# Worst residual: 8.97 km
# MJD 59987.000000 (2023 Feb 12  0:00)
2015-019C = NORAD 41929 = S509356 = WJ2AD07
1 41929U 15019C   23043.49919926  .00000000  00000-0  00000-0 0 19904
2 41929 019.8633 213.0688 4832639 174.6393 219.6724 00.27895656    02

# Worst residual: 8.52 km
# MJD 59988.000000 (2023 Feb 13  0:00)
2015-019C = NORAD 41929 = S509356 = WJ2AD07
1 41929U 15019C   23044.49919926  .00000000  00000-0  00000-0 0 19905
2 41929 019.8366 213.0072 4839948 174.7804 320.0633 00.27909303    01

# Worst residual: 8.64 km
# MJD 59989.000000 (2023 Feb 14  0:00)
2015-019C = NORAD 41929 = S509356 = WJ2AD07
1 41929U 15019C   23045.49919926  .00000000  00000-0  00000-0 0 19906
2 41929 019.8467 212.9912 4839967 174.8534 060.5050 00.27914584    02

# Worst residual: 3.78 km
# MJD 59990.000000 (2023 Feb 15  0:00)
2015-019C = NORAD 41929 = S509356 = WJ2AD07
1 41929U 15019C   23046.49919926  .00000000  00000-0  00000-0 0 19907
2 41929 019.8418 212.9635 4838654 174.8478 161.1343 00.27934436    00

# Worst residual: 6.51 km
# MJD 59991.000000 (2023 Feb 16  0:00)
2015-019C = NORAD 41929 = S509356 = WJ2AD07
1 41929U 15019C   23047.49919926  .00000000  00000-0  00000-0 0 19908
2 41929 019.8125 212.9227 4837315 174.8975 261.6702 00.27928550    02

# Worst residual: 21.44 km
# MJD 59992.000000 (2023 Feb 17  0:00)
2015-019C = NORAD 41929 = S509356 = WJ2AD07
1 41929U 15019C   23048.49919926  .00000000  00000-0  00000-0 0 19909
2 41929 019.7938 212.8581 4828606 174.9698 002.1241 00.27964973    06

# Worst residual: 14.95 km
# MJD 59993.000000 (2023 Feb 18  0:00)
2015-019C = NORAD 41929 = S509356 = WJ2AD07
1 41929U 15019C   23049.49919926  .00000000  00000-0  00000-0 0 19900
2 41929 019.7897 212.8079 4839830 175.0347 102.5353 00.27925071    01

# Worst residual: 3.75 km
# MJD 59994.000000 (2023 Feb 19  0:00)
2015-019C = NORAD 41929 = S509356 = WJ2AD07
1 41929U 15019C   23050.49919926  .00000000  00000-0  00000-0 0 19902
2 41929 019.8004 212.7625 4843766 175.1480 202.8899 00.27921107    05

# Worst residual: 14.41 km
# MJD 59995.000000 (2023 Feb 20  0:00)
2015-019C = NORAD 41929 = S509356 = WJ2AD07
1 41929U 15019C   23051.49919926  .00000000  00000-0  00000-0 0 19903
2 41929 019.8069 212.7563 4850147 175.1082 303.5341 00.27898883    01

# Worst residual: 10.73 km
# MJD 59996.000000 (2023 Feb 21  0:00)
2015-019C = NORAD 41929 = S509356 = WJ2AD07
1 41929U 15019C   23052.49919926  .00000000  00000-0  00000-0 0 19904
2 41929 019.7788 212.7562 4846492 175.1476 044.0072 00.27944201    06

# Worst residual: 7.58 km
# MJD 59997.000000 (2023 Feb 22  0:00)
2015-019C = NORAD 41929 = S509356 = WJ2AD07
1 41929U 15019C   23053.49919926  .00000000  00000-0  00000-0 0 19905
2 41929 019.7738 212.7105 4850555 175.2894 144.3409 00.27917849    00

# Worst residual: 7.84 km
# MJD 59998.000000 (2023 Feb 23  0:00)
2015-019C = NORAD 41929 = S509356 = WJ2AD07
1 41929U 15019C   23054.49919926  .00000000  00000-0  00000-0 0 19906
2 41929 019.7686 212.6843 4849391 175.3475 244.7584 00.27906943    04
